KUIPER-00133            
1 65764U 25217C   25316.83336806 -.00015650  00000+0 -93723-3 0  9994
2 65764  51.8814 211.7890 0010021 289.8708 207.1516 15.09899348  5194
KUIPER-00139            
1 65765U 25217D   25316.83336806 -.00007215  00000+0 -29320-3 0  9995
2 65765  51.8712 210.2285 0006985 259.4208 262.5917 15.22478195  4946
KUIPER-00142            
1 65766U 25217E   25316.11315896  .00044861  00000+0  12027-2 0  9994
2 65766  51.8694 212.4787 0002424 218.3427 141.7387 15.37536534  7331
KUIPER-00145            
1 65767U 25217F   25316.70577417  .00082893  00000+0  22322-2 0  9995
2 65767  51.8701 209.6991 0003177 235.8076 124.2610 15.37118356  7429
KUIPER-00147            
1 65768U 25217G   25316.73437012  .00098164  00000+0  27233-2 0  9999
2 65768  51.8641 209.8636 0005147 262.5126  97.5275 15.36100801  7427
KUIPER-00148            
1 65769U 25217H   25316.23602496  .00080972  00000+0  22933-2 0  9995
2 65769  51.8604 212.4962 0008784 279.5886  80.4107 15.35527797  7342
KUIPER-00150            
1 65770U 25217J   25316.83336806 -.00803521  00000+0 -44947-1 0  9995
2 65770  51.8761 210.9575 0007064 271.5790 191.7189 15.15766828  5237
KUIPER-00151            
1 65771U 25217K   25316.83336806 -.00302833  00000+0 -94480-2 0  9994
2 65771  51.8709 209.1986 0004829 229.6392  62.9907 15.33910487  5097
